NORBI                   
1 46494U 20068J   26177.52623980  .00022596  00000+0  42099-3 0  9991
2 46494  97.8625 194.3152 0006069 206.1525 153.9418 15.48834946317658
SALSAT                  
1 46495U 20068K   26177.49875037  .00007768  00000+0  27079-3 0  9995
2 46495  97.8850 181.1309 0007809 268.2261  91.8084 15.29924136316788
ICEYE-X6                
1 46497U 20068M   26177.56873904  .00002719  00000+0  19849-3 0  9993
2 46497  98.0976 171.6891 0009023  66.4125 293.8047 15.04572851314641
NETSAT-4                
1 46504U 20068U   26177.19804052  .00019512  00000+0  42747-3 0  9991
2 46504  97.8601 186.1637 0003168 289.3785  70.7119 15.44149820317165
NETSAT-3                
1 46505U 20068V   26177.27604884  .00020517  00000+0  46733-3 0  9998
2 46505  97.8652 184.4532 0003131 318.1999  41.9007 15.42978668317080
NETSAT-1                
1 46506U 20068W   26177.26336497  .00013502  00000+0  40195-3 0  9992
2 46506  97.8742 178.6632 0003902   2.5836 357.5425 15.34840028316692
NETSAT-2                
1 46507U 20068X   26177.48426273  .00021599  00000+0  43836-3 0  9999
2 46507  97.8613 186.4021 0001975 351.4742   8.6472 15.46383273317176
TIANQI-6                
1 46810U 20076D   26177.61040508  .00003759  00000+0  24578-3 0  9993
2 46810  35.0003 350.6291 0011023 254.7732 105.1759 15.07242250310005
KSM1-C                  
1 46906U 20081B   26177.57673819  .00010330  00000+0  38509-3 0  9999
2 46906  36.8969   0.9681 0003569 298.6139  61.4251 15.26889482310605
KSM1-D                  
1 46907U 20081C   26177.65643812  .00009143  00000+0  36290-3 0  9994
2 46907  36.8980   9.6699 0004598 323.0697  36.9734 15.24851483310543
KSM1-A                  
1 46912U 20081H   26177.58479887  .00009682  00000+0  36992-3 0  9998
2 46912  36.8982   3.3832 0003198   5.2305 354.8477 15.26101098310617
R2                      
1 46913U 20081J   26177.54401245  .00008061  00000+0  31361-3 0  9993
2 46913  36.8984   3.6652 0008022 354.2328   5.8327 15.25555266313413
KSM1-B                  
1 46914U 20081K   26177.59572784  .00009101  00000+0  36350-3 0  9995
2 46914  36.9038  10.6714 0005761 347.0323  13.0277 15.24639108313629
GONETS-M 20             
1 47227U 20091A   26177.66565566  .00000007  00000+0 -18650-4 0  9993
2 47227  82.5047 296.5437 0021603 157.5972 202.6056 12.42893984252251
GONETS-M 21             
1 47228U 20091B   26177.63956340 -.00000005  00000+0 -11082-3 0  9995
2 47228  82.4971 295.2612 0015222 170.4380 189.6993 12.42886998252245
GONETS-M 22             
1 47229U 20091C   26177.61262309 -.00000019  00000+0 -21180-3 0  9994
2 47229  82.5028 296.1810 0022533 153.2071 207.0178 12.42893104252190
CUBEL                   
1 47448U 21006AM  26177.57519805  .00016220  00000+0  38786-3 0  9994
2 47448  97.2331 228.0714 0007916 134.0638 226.1262 15.41523399301205
ARKTIKA-M 1             
1 47719U 21016A   26175.46896265 -.00000298  00000+0  00000+0 0  9993
2 47719  63.2470  56.5720 7291000 269.9787  14.5750  2.00620016 38936
STARLINK-2342           
1 47883U 21021Z   26177.39645620  .00206767  00000+0  88045-3 0  9999
2 47883  53.1534 101.8081 0002837 194.2631 165.8314 15.84148002293362
GRUS-1B                 
1 47934U 21022C   26177.65693588  .00000585  00000+0  53288-4 0  9994
2 47934  97.5378  60.5437 0014690 290.1702  69.7940 14.98737418287312
UNISAT-7                
1 47945U 21022P   26177.31782039  .00015746  00000+0  38668-3 0  9998
2 47945  97.3888  82.3381 0010417  51.5860 308.6321 15.40705206291260
GLOBAL-9                
1 47971U 21023G   26177.35950698  .00019009  00000+0  37531-3 0  9994
2 47971  44.9790 198.9595 0003653  10.2699 349.8265 15.46917634296362
AII-BRAVO               
1 48270U 21034C   26177.60490800  .00003856  00000+0  28682-3 0  9991
2 48270  97.5627 232.3019 0004427 213.1134 146.9816 15.03546899281030
TYVAK-182A              
1 48271U 21034D   26177.43169221  .00005626  00000+0  38750-3 0  9997
2 48271  97.5730 236.1885 0004346 306.5807  53.5020 15.06248178281226
CSS (TIANHE)            
1 48274U 21035A   26177.57375109  .00020720  00000+0  24073-3 0  9995
2 48274  41.4690 264.8628 0007978 156.9177 203.2022 15.61214347294633
TYVAK-0130              
1 48606U 21041BF  26176.68133090  .00009701  00000+0  36587-3 0  9992
2 48606  52.9954 346.6357 0009779 190.3019 169.7780 15.27674013281688
HAIYANG-2D              
1 48621U 21043A   26177.61852388 -.00000116  00000+0 -31391-4 0  9995
2 48621  65.9994 281.2186 0011516 267.7846  92.1903 13.83371113257859
2021-050D               
1 48843U 21050D   26177.59737032  .00007919  00000+0  33534-3 0  9990
2 48843  97.3342 253.4191 0004384 217.6471 142.4460 15.23422978280395
