OBJECT_NAME,OBJECT_ID,EPOCH,MEAN_MOTION,ECCENTRICITY,INCLINATION,RA_OF_ASC_NODE,ARG_OF_PERICENTER,MEAN_ANOMALY,EPHEMERIS_TYPE,CLASSIFICATION_TYPE,NORAD_CAT_ID,ELEMENT_SET_NO,REV_AT_EPOCH,BSTAR,MEAN_MOTION_DOT,MEAN_MOTION_DDOT
NORBI,2020-068J,2026-06-26T12:37:47.118720,15.48834946,.00060698,97.8625,194.3152,206.1525,153.9418,0,U,46494,999,31765,.42099357E-3,.22596E-3,0
SALSAT,2020-068K,2026-06-26T11:58:12.031968,15.29924136,.00078098,97.8850,181.1309,268.2261,91.8084,0,U,46495,999,31678,.27078782E-3,.7768E-4,0
ICEYE-X6,2020-068M,2026-06-26T13:38:59.053056,15.04572851,.00090236,98.0976,171.6891,66.4125,293.8047,0,U,46497,999,31464,.19848797E-3,.2719E-4,0
NETSAT-4,2020-068U,2026-06-26T04:45:10.700928,15.44149820,.00031685,97.8601,186.1637,289.3785,70.7119,0,U,46504,999,31716,.42746823E-3,.19512E-3,0
NETSAT-3,2020-068V,2026-06-26T06:37:30.619776,15.42978668,.00031311,97.8652,184.4532,318.1999,41.9007,0,U,46505,999,31708,.46732913E-3,.20517E-3,0
NETSAT-1,2020-068W,2026-06-26T06:19:14.733408,15.34840028,.00039027,97.8742,178.6632,2.5836,357.5425,0,U,46506,999,31669,.40195216E-3,.13502E-3,0
NETSAT-2,2020-068X,2026-06-26T11:37:20.299872,15.46383273,.00019755,97.8613,186.4021,351.4742,8.6472,0,U,46507,999,31717,.4383613E-3,.21599E-3,0
TIANQI-6,2020-076D,2026-06-26T14:38:58.998912,15.07242250,.0011023,35.0003,350.6291,254.7732,105.1759,0,U,46810,999,31000,.24578107E-3,.3759E-4,0
KSM1-C,2020-081B,2026-06-26T13:50:30.179616,15.26889482,.00035691,36.8969,0.9681,298.6139,61.4251,0,U,46906,999,31060,.3850931E-3,.1033E-3,0
KSM1-D,2020-081C,2026-06-26T15:45:16.253568,15.24851483,.00045989,36.8980,9.6699,323.0697,36.9734,0,U,46907,999,31054,.36290004E-3,.9143E-4,0
KSM1-A,2020-081H,2026-06-26T14:02:06.622368,15.26101098,.00031985,36.8982,3.3832,5.2305,354.8477,0,U,46912,999,31061,.36992491E-3,.9682E-4,0
R2,2020-081J,2026-06-26T13:03:22.675680,15.25555266,.00080225,36.8984,3.6652,354.2328,5.8327,0,U,46913,999,31341,.31361221E-3,.8061E-4,0
KSM1-B,2020-081K,2026-06-26T14:17:50.885376,15.24639108,.0005761,36.9038,10.6714,347.0323,13.0277,0,U,46914,999,31362,.36350365E-3,.9101E-4,0
GONETS-M 20,2020-091A,2026-06-26T15:58:32.649024,12.42893984,.00216031,82.5047,296.5437,157.5972,202.6056,0,U,47227,999,25225,-.18649676E-4,.7E-7,0
GONETS-M 21,2020-091B,2026-06-26T15:20:58.277760,12.42886998,.00152221,82.4971,295.2612,170.4380,189.6993,0,U,47228,999,25224,-.11081928E-3,-.5E-7,0
GONETS-M 22,2020-091C,2026-06-26T14:42:10.634976,12.42893104,.00225334,82.5028,296.1810,153.2071,207.0178,0,U,47229,999,25219,-.21179576E-3,-.19E-6,0
CUBEL,2021-006AM,2026-06-26T13:48:17.111520,15.41523399,.00079169,97.2331,228.0714,134.0638,226.1262,0,U,47448,999,30120,.38785904E-3,.1622E-3,0
ARKTIKA-M 1,2021-016A,2026-06-24T11:15:18.372960,2.00620016,.7291,63.2470,56.5720,269.9787,14.5750,0,U,47719,999,3893,0,-.298E-5,0
STARLINK-2342,2021-021Z,2026-06-26T09:30:53.815680,15.84148002,.00028374,53.1534,101.8081,194.2631,165.8314,0,U,47883,999,29336,.88045068E-3,.206767E-2,0
GRUS-1B,2021-022C,2026-06-26T15:45:59.260032,14.98737418,.00146909,97.5378,60.5437,290.1702,69.7940,0,U,47934,999,28731,.53287953E-4,.585E-5,0
UNISAT-7,2021-022P,2026-06-26T07:37:39.681696,15.40705206,.00104174,97.3888,82.3381,51.5860,308.6321,0,U,47945,999,29126,.38668331E-3,.15746E-3,0
GLOBAL-9,2021-023G,2026-06-26T08:37:41.403072,15.46917634,.00036535,44.9790,198.9595,10.2699,349.8265,0,U,47971,999,29636,.37531217E-3,.19009E-3,0
AII-BRAVO,2021-034C,2026-06-26T14:31:04.051200,15.03546899,.00044272,97.5627,232.3019,213.1134,146.9816,0,U,48270,999,28103,.28682338E-3,.3856E-4,0
TYVAK-182A,2021-034D,2026-06-26T10:21:38.206944,15.06248178,.00043468,97.5730,236.1885,306.5807,53.5020,0,U,48271,999,28122,.38749993E-3,.5626E-4,0
CSS (TIANHE),2021-035A,2026-06-26T13:46:12.094176,15.61214347,.00079788,41.4690,264.8628,156.9177,203.2022,0,U,48274,999,29463,.24073428E-3,.2072E-3,0
TYVAK-0130,2021-041BF,2026-06-25T16:21:06.989760,15.27674013,.00097798,52.9954,346.6357,190.3019,169.7780,0,U,48606,999,28168,.36587355E-3,.9701E-4,0
HAIYANG-2D,2021-043A,2026-06-26T14:50:40.463232,13.83371113,.00115165,65.9994,281.2186,267.7846,92.1903,0,U,48621,999,25785,-.31391248E-4,-.116E-5,0
2021-050D,2021-050D,2026-06-26T14:20:12.795648,15.23422978,.00043848,97.3342,253.4191,217.6471,142.4460,0,U,48843,999,28039,.33534482E-3,.7919E-4,0
